{"fetched_at":"2026-07-13T18:17:17.391Z","source":"https://celestrak.org/NORAD/elements/gp.php?NAME=SPACEMOBILE&FORMAT=JSON","constellation":"ast-spacemobile","records":[{"OBJECT_NAME":"SPACEMOBILE-003","OBJECT_ID":"2024-163A","EPOCH":"2026-07-12T02:59:11.082912","CLASSIFICATION_TYPE":"U","MEAN_MOTION":15.20757146,"ECCENTRICITY":0.00039532,"INCLINATION":52.9645,"RA_OF_ASC_NODE":194.7701,"ARG_OF_PERICENTER":176.8899,"MEAN_ANOMALY":183.212,"EPHEMERIS_TYPE":0,"NORAD_CAT_ID":61045,"ELEMENT_SET_NO":999,"REV_AT_EPOCH":10156,"BSTAR":0.000015017438,"MEAN_MOTION_DOT":8e-8,"MEAN_MOTION_DDOT":0},{"OBJECT_NAME":"SPACEMOBILE-005","OBJECT_ID":"2024-163B","EPOCH":"2026-07-13T02:14:56.738400","CLASSIFICATION_TYPE":"U","MEAN_MOTION":15.2074616,"ECCENTRICITY":0.00085164,"INCLINATION":52.9757,"RA_OF_ASC_NODE":190.2542,"ARG_OF_PERICENTER":188.4778,"MEAN_ANOMALY":171.6074,"EPHEMERIS_TYPE":0,"NORAD_CAT_ID":61046,"ELEMENT_SET_NO":999,"REV_AT_EPOCH":10170,"BSTAR":0.000029081362,"MEAN_MOTION_DOT":0.0000032,"MEAN_MOTION_DDOT":0},{"OBJECT_NAME":"SPACEMOBILE-001","OBJECT_ID":"2024-163C","EPOCH":"2026-07-11T10:46:43.885920","CLASSIFICATION_TYPE":"U","MEAN_MOTION":15.20792937,"ECCENTRICITY":0.00074751,"INCLINATION":52.9736,"RA_OF_ASC_NODE":197.5273,"ARG_OF_PERICENTER":183.3179,"MEAN_ANOMALY":176.7767,"EPHEMERIS_TYPE":0,"NORAD_CAT_ID":61047,"ELEMENT_SET_NO":999,"REV_AT_EPOCH":10145,"BSTAR":0.000028550562,"MEAN_MOTION_DOT":0.00000309,"MEAN_MOTION_DDOT":0},{"OBJECT_NAME":"SPACEMOBILE-002","OBJECT_ID":"2024-163D","EPOCH":"2026-07-13T01:49:27.471360","CLASSIFICATION_TYPE":"U","MEAN_MOTION":15.20818302,"ECCENTRICITY":0.00063791,"INCLINATION":52.9787,"RA_OF_ASC_NODE":190.0866,"ARG_OF_PERICENTER":191.8159,"MEAN_ANOMALY":168.2686,"EPHEMERIS_TYPE":0,"NORAD_CAT_ID":61048,"ELEMENT_SET_NO":999,"REV_AT_EPOCH":10170,"BSTAR":0.00061596906,"MEAN_MOTION_DOT":0.00013464,"MEAN_MOTION_DDOT":0},{"OBJECT_NAME":"SPACEMOBILE-004","OBJECT_ID":"2024-163E","EPOCH":"2026-07-12T09:38:01.727232","CLASSIFICATION_TYPE":"U","MEAN_MOTION":15.2079556,"ECCENTRICITY":0.00068534,"INCLINATION":52.9682,"RA_OF_ASC_NODE":192.9673,"ARG_OF_PERICENTER":216.7757,"MEAN_ANOMALY":143.2768,"EPHEMERIS_TYPE":0,"NORAD_CAT_ID":61049,"ELEMENT_SET_NO":999,"REV_AT_EPOCH":10160,"BSTAR":0.00058301527,"MEAN_MOTION_DOT":0.00012717,"MEAN_MOTION_DDOT":0},{"OBJECT_NAME":"SPACEMOBILE-001 DEB","OBJECT_ID":"2024-163F","EPOCH":"2026-07-13T06:59:36.424320","CLASSIFICATION_TYPE":"U","MEAN_MOTION":15.35366873,"ECCENTRICITY":0.00057968,"INCLINATION":52.9925,"RA_OF_ASC_NODE":156.4711,"ARG_OF_PERICENTER":245.6748,"MEAN_ANOMALY":114.3648,"EPHEMERIS_TYPE":0,"NORAD_CAT_ID":62369,"ELEMENT_SET_NO":999,"REV_AT_EPOCH":9051,"BSTAR":0.00018501231,"MEAN_MOTION_DOT":0.00006072,"MEAN_MOTION_DDOT":0},{"OBJECT_NAME":"SPACEMOBILE-002 DEB","OBJECT_ID":"2024-163G","EPOCH":"2026-07-12T22:55:24.700800","CLASSIFICATION_TYPE":"U","MEAN_MOTION":15.43763738,"ECCENTRICITY":0.00045352,"INCLINATION":52.9409,"RA_OF_ASC_NODE":142.3218,"ARG_OF_PERICENTER":277.8645,"MEAN_ANOMALY":82.1844,"EPHEMERIS_TYPE":0,"NORAD_CAT_ID":62370,"ELEMENT_SET_NO":999,"REV_AT_EPOCH":10234,"BSTAR":0.00032583085,"MEAN_MOTION_DOT":0.00014579,"MEAN_MOTION_DDOT":0},{"OBJECT_NAME":"SPACEMOBILE-003 DEB","OBJECT_ID":"2024-163H","EPOCH":"2026-07-13T05:52:55.848576","CLASSIFICATION_TYPE":"U","MEAN_MOTION":15.41516378,"ECCENTRICITY":0.00054266,"INCLINATION":52.9684,"RA_OF_ASC_NODE":147.8051,"ARG_OF_PERICENTER":229.5978,"MEAN_ANOMALY":130.4552,"EPHEMERIS_TYPE":0,"NORAD_CAT_ID":62371,"ELEMENT_SET_NO":999,"REV_AT_EPOCH":9590,"BSTAR":0.00028756457,"MEAN_MOTION_DOT":0.00011862,"MEAN_MOTION_DDOT":0},{"OBJECT_NAME":"SPACEMOBILE-004 DEB","OBJECT_ID":"2024-163J","EPOCH":"2026-07-13T06:18:14.719104","CLASSIFICATION_TYPE":"U","MEAN_MOTION":15.40730557,"ECCENTRICITY":0.00027393,"INCLINATION":52.9836,"RA_OF_ASC_NODE":147.3611,"ARG_OF_PERICENTER":255.7901,"MEAN_ANOMALY":104.2798,"EPHEMERIS_TYPE":0,"NORAD_CAT_ID":62372,"ELEMENT_SET_NO":999,"REV_AT_EPOCH":9897,"BSTAR":0.00023576349,"MEAN_MOTION_DOT":0.00009391,"MEAN_MOTION_DDOT":0},{"OBJECT_NAME":"SPACEMOBILE-005 DEB","OBJECT_ID":"2024-163K","EPOCH":"2026-07-12T22:07:39.974880","CLASSIFICATION_TYPE":"U","MEAN_MOTION":15.34631237,"ECCENTRICITY":0.00057665,"INCLINATION":52.9729,"RA_OF_ASC_NODE":163.0995,"ARG_OF_PERICENTER":221.1339,"MEAN_ANOMALY":138.9227,"EPHEMERIS_TYPE":0,"NORAD_CAT_ID":62373,"ELEMENT_SET_NO":999,"REV_AT_EPOCH":10207,"BSTAR":0.0002274876,"MEAN_MOTION_DOT":0.00007375,"MEAN_MOTION_DDOT":0},{"OBJECT_NAME":"SPACEMOBILE-006","OBJECT_ID":"2025-309A","EPOCH":"2026-07-13T07:15:23.503104","CLASSIFICATION_TYPE":"U","MEAN_MOTION":15.18650625,"ECCENTRICITY":0.00102747,"INCLINATION":52.9935,"RA_OF_ASC_NODE":212.006,"ARG_OF_PERICENTER":209.1142,"MEAN_ANOMALY":150.928,"EPHEMERIS_TYPE":0,"NORAD_CAT_ID":67232,"ELEMENT_SET_NO":999,"REV_AT_EPOCH":3056,"BSTAR":0.000036380834,"MEAN_MOTION_DOT":0.00000441,"MEAN_MOTION_DDOT":0},{"OBJECT_NAME":"SPACEMOBILE-008","OBJECT_ID":"2026-139A","EPOCH":"2026-07-13T05:41:11.028480","CLASSIFICATION_TYPE":"U","MEAN_MOTION":15.12800584,"ECCENTRICITY":0.00049901,"INCLINATION":52.9945,"RA_OF_ASC_NODE":144.2981,"ARG_OF_PERICENTER":51.825,"MEAN_ANOMALY":308.319,"EPHEMERIS_TYPE":0,"NORAD_CAT_ID":69589,"ELEMENT_SET_NO":999,"REV_AT_EPOCH":392,"BSTAR":0.000010367403,"MEAN_MOTION_DOT":-0.00000117,"MEAN_MOTION_DDOT":0},{"OBJECT_NAME":"SPACEMOBILE-009","OBJECT_ID":"2026-139B","EPOCH":"2026-07-13T07:18:57.103776","CLASSIFICATION_TYPE":"U","MEAN_MOTION":15.12693917,"ECCENTRICITY":0.00052387,"INCLINATION":52.9936,"RA_OF_ASC_NODE":144.0042,"ARG_OF_PERICENTER":47.8586,"MEAN_ANOMALY":312.2849,"EPHEMERIS_TYPE":0,"NORAD_CAT_ID":69590,"ELEMENT_SET_NO":999,"REV_AT_EPOCH":393,"BSTAR":0.00001116461,"MEAN_MOTION_DOT":-0.00000104,"MEAN_MOTION_DDOT":0},{"OBJECT_NAME":"SPACEMOBILE-010","OBJECT_ID":"2026-139C","EPOCH":"2026-07-13T05:47:58.811424","CLASSIFICATION_TYPE":"U","MEAN_MOTION":15.12525408,"ECCENTRICITY":0.00051566,"INCLINATION":52.9943,"RA_OF_ASC_NODE":144.3248,"ARG_OF_PERICENTER":39.4417,"MEAN_ANOMALY":320.6949,"EPHEMERIS_TYPE":0,"NORAD_CAT_ID":69591,"ELEMENT_SET_NO":999,"REV_AT_EPOCH":393,"BSTAR":0.000015486107,"MEAN_MOTION_DOT":-2.8e-7,"MEAN_MOTION_DDOT":0}]}
